EUTELSAT 21B            
1 38992U 12062B   26004.89174818  .00000130  00000+0  00000+0 0  9992
2 38992   0.0664  13.3325 0003019 274.5150 159.2587  1.00270237 48194
EUTELSAT 70B            
1 39020U 12069A   26004.88725381 -.00000043  00000+0  00000+0 0  9992
2 39020   0.0620  12.5715 0003870 251.7661 230.0546  1.00271738 47876
EUTELSAT 117 WEST A     
1 39122U 13012A   26004.93570718 -.00000013  00000+0  00000+0 0  9999
2 39122   0.0185  43.8455 0003072 246.9456  33.7834  1.00270652 46797
EUTELSAT 7B             
1 39163U 13022A   26004.88888816  .00000048  00000+0  00000+0 0  9997
2 39163   0.0651 357.4905 0005382 328.6151 105.3633  1.00270697 46310
EXPRESS-AT1             
1 39612U 14010A   26005.11259493  .00000079  00000+0  00000+0 0  9998
2 39612   0.0156 332.9806 0000394 349.8350 238.4165  1.00270151 43186
EXPRESS-AT2             
1 39613U 14010B   26004.91516705 -.00000281  00000+0  00000+0 0  9994
2 39613   0.0175 304.8155 0001626 340.6568 288.3416  1.00275905 42861
EUTELSAT 3B             
1 39773U 14030A   26004.88810816  .00000020  00000+0  00000+0 0  9999
2 39773   0.0629  17.0028 0004114 227.5463 182.7446  1.00272336 42434
EUTELSAT 115 WEST B     
1 40425U 15010B   26004.93605384 -.00000025  00000+0  00000+0 0  9998
2 40425   0.0103 152.7250 0000352 284.3980 249.4838  1.00269833 39751
